NORAD_CAT_ID,OBJECT_NAME,OBJECT_TYPE,EPOCH,MEAN_MOTION,ECCENTRICITY,INCLINATION,RA_OF_ASC_NODE,ARG_OF_PERICENTER,MEAN_ANOMALY,BSTAR,MEAN_MOTION_DOT,MEAN_MOTION_DDOT,TLE_LINE0,TLE_LINE1,TLE_LINE2,SEMIMAJOR_AXIS,PERIOD,APOGEE,PERIGEE,DECAYED
56777.0,STARLINK-5582,PAYLOAD,2024-07-30 17:24:36,14.98332722,0.0002493,70.0001,24.6037,273.2679,86.8195,-1.6152e-06,-1.12e-06,0.0,0 STARLINK-5582,1 56777U 23078L   24212.72541852 -.00000112  00000-0 -16152-5 0  9993,2 56777  70.0001  24.6037 0002493 273.2679  86.8195 14.98332722 65018,6950.184,96.107,573.782,570.317,0.0
56777.0,STARLINK-5582,PAYLOAD,2024-07-31 14:14:21,14.98329092,0.000329,69.9997,22.4149,268.3322,91.746,-0.00035086,-4.277e-05,0.0,0 STARLINK-5582,1 56777U 23078L   24213.59330986 -.00004277  00000-0 -35086-3 0  9994,2 56777  69.9997  22.4149 0003290 268.3322  91.7460 14.98329092 64885,6950.196,96.107,574.347,569.774,0.0
56777.0,STARLINK-5582,PAYLOAD,2024-07-31 20:38:54,14.98328669,0.0003122,70.0006,21.7422,270.9058,89.1743,-0.00029903,-3.659e-05,0.0,0 STARLINK-5582,1 56777U 23078L   24213.86035010 -.00003659  00000-0 -29903-3 0  9998,2 56777  70.0006  21.7422 0003122 270.9058  89.1743 14.98328669 64923,6950.197,96.107,574.232,569.892,0.0
56777.0,STARLINK-5582,PAYLOAD,2024-08-01 12:40:14,14.98320541,0.0003278,70.0006,20.059,269.694,90.3843,0.00020181,2.315e-05,0.0,0 STARLINK-5582,1 56777U 23078L   24214.52794552  .00002315  00000-0  20181-3 0  9990,2 56777  70.0006  20.0590 0003278 269.6940  90.3843 14.98320541 65026,6950.222,96.108,574.365,569.809,0.0
56777.0,STARLINK-5582,PAYLOAD,2024-08-01 20:40:54,14.98329618,0.000325,70.0007,19.2176,269.6401,90.4385,0.0002579,2.986e-05,0.0,0 STARLINK-5582,1 56777U 23078L   24214.86174082  .00002986  00000-0  25790-3 0  9992,2 56777  70.0007  19.2176 0003250 269.6401  90.4385 14.98329618 65339,6950.194,96.107,574.318,569.8,0.0
56777.0,STARLINK-5582,PAYLOAD,2024-08-02 04:41:35,14.98321654,0.0003423,70.0004,18.3744,270.182,89.8947,0.00026027,3.013e-05,0.0,0 STARLINK-5582,1 56777U 23078L   24215.19554690  .00003013  00000-0  26027-3 0  9992,2 56777  70.0004  18.3744 0003423 270.1820  89.8947 14.98321654 65384,6950.219,96.108,574.463,569.705,0.0
56777.0,STARLINK-5582,PAYLOAD,2024-08-02 14:18:24,14.9832241,0.0003231,70.0009,17.3659,268.5672,91.5117,0.000227,2.616e-05,0.0,0 STARLINK-5582,1 56777U 23078L   24215.59611232  .00002616  00000-0  22700-3 0  9994,2 56777  70.0009  17.3659 0003231 268.5672  91.5117 14.98322410 65184,6950.216,96.107,574.327,569.836,0.0
56777.0,STARLINK-5582,PAYLOAD,2024-08-02 20:42:56,14.98328764,0.0003256,70.001,16.6934,270.3791,89.6995,0.00028058,3.256e-05,0.0,0 STARLINK-5582,1 56777U 23078L   24215.86315087  .00003256  00000-0  28058-3 0  9996,2 56777  70.0010  16.6934 0003256 270.3791  89.6995 14.98328764 65229,6950.197,96.107,574.325,569.799,0.0
56777.0,STARLINK-5582,PAYLOAD,2024-08-03 12:44:16,14.98339012,0.0003229,70.0025,15.0085,273.2432,86.8358,0.00011578,1.289e-05,0.0,0 STARLINK-5582,1 56777U 23078L   24216.53074601  .00001289  00000-0  11578-3 0  9998,2 56777  70.0025  15.0085 0003229 273.2432  86.8358 14.98339012 65588,6950.165,96.106,574.274,569.786,0.0
56777.0,STARLINK-5582,PAYLOAD,2024-08-03 14:20:24,14.98338776,0.0003239,70.0024,14.8401,273.2305,86.8483,0.0001083,1.2e-05,0.0,0 STARLINK-5582,1 56777U 23078L   24216.59750578  .00001200  00000-0  10830-3 0  9991,2 56777  70.0024  14.8401 0003239 273.2305  86.8483 14.98338776 65334,6950.166,96.106,574.282,569.78,0.0
56777.0,STARLINK-5582,PAYLOAD,2024-08-03 20:44:56,14.9834512,0.0003232,70.0014,14.1672,272.8558,87.2231,0.00015064,1.706e-05,0.0,0 STARLINK-5582,1 56777U 23078L   24216.86453951  .00001706  00000-0  15064-3 0  9991,2 56777  70.0014  14.1672 0003232 272.8558  87.2231 14.98345120 65375,6950.146,96.106,574.257,569.765,0.0
56777.0,STARLINK-5582,PAYLOAD,2024-08-04 12:46:17,14.9832715,0.0003129,70.0019,12.4842,273.8091,86.271,6.2832e-05,6.57e-06,0.0,0 STARLINK-5582,1 56777U 23078L   24217.53215113  .00000657  00000-0  62832-4 0  9992,2 56777  70.0019  12.4842 0003129 273.8091  86.2710 14.98327150 65732,6950.202,96.107,574.241,569.892,0.0
56777.0,STARLINK-5582,PAYLOAD,2024-08-04 14:22:25,14.9832774,0.0003053,70.0021,12.3168,272.6622,87.4188,5.8523e-05,6.05e-06,0.0,0 STARLINK-5582,1 56777U 23078L   24217.59891037  .00000605  00000-0  58523-4 0  9998,2 56777  70.0021  12.3168 0003053 272.6622  87.4188 14.98327740 65487,6950.2,96.107,574.187,569.943,0.0
56777.0,STARLINK-5582,PAYLOAD,2024-08-04 20:46:57,14.98332435,0.0002821,70.0025,11.6437,270.5145,89.5691,0.00011762,1.311e-05,0.0,0 STARLINK-5582,1 56777U 23078L   24217.86594609  .00001311  00000-0  11762-3 0  9991,2 56777  70.0025  11.6437 0002821 270.5145  89.5691 14.98332435 65525,6950.185,96.107,574.011,570.09,0.0
56777.0,STARLINK-5582,PAYLOAD,2024-08-05 19:12:50,14.98336859,0.0002855,70.0022,9.287,266.3329,93.7504,3.2063e-05,2.9e-06,0.0,0 STARLINK-5582,1 56777U 23078L   24218.80058164  .00000290  00000-0  32063-4 0  9990,2 56777  70.0022   9.2870 0002855 266.3329  93.7504 14.98336859 65669,6950.172,96.107,574.021,570.052,0.0
56777.0,STARLINK-5582,PAYLOAD,2024-08-06 03:13:30,14.9835867,0.0002914,70.0025,8.4455,269.4568,90.6258,-0.00047574,-5.769e-05,0.0,0 STARLINK-5582,1 56777U 23078L   24219.13437539 -.00005769  00000-0 -47574-3 0  9994,2 56777  70.0025   8.4455 0002914 269.4568  90.6258 14.98358670 65978,6950.104,96.105,573.994,569.944,0.0
56777.0,STARLINK-5582,PAYLOAD,2024-08-06 12:50:19,14.98326564,0.0002746,70.0022,7.4355,264.5591,95.5255,2.8765e-05,2.5e-06,0.0,0 STARLINK-5582,1 56777U 23078L   24219.53494781  .00000250  00000-0  28765-4 0  9990,2 56777  70.0022   7.4355 0002746 264.5591  95.5255 14.98326564 66034,6950.204,96.107,573.977,570.16,0.0
56777.0,STARLINK-5582,PAYLOAD,2024-08-06 14:26:27,14.98325494,0.0002775,70.0022,7.2671,264.6703,95.414,1.2863e-05,6.1e-07,0.0,0 STARLINK-5582,1 56777U 23078L   24219.60170898  .00000061  00000-0  12863-4 0  9990,2 56777  70.0022   7.2671 0002775 264.6703  95.4140 14.98325494 65785,6950.207,96.107,574.001,570.143,0.0
56777.0,STARLINK-5582,PAYLOAD,2024-08-06 19:14:52,14.9832305,0.0002818,70.0023,6.7622,263.3914,96.6924,-2.0916e-05,-3.42e-06,0.0,0 STARLINK-5582,1 56777U 23078L   24219.80199169 -.00000342  00000-0 -20916-4 0  9996,2 56777  70.0023   6.7622 0002818 263.3914  96.6924 14.98323050 65817,6950.214,96.107,574.038,570.121,0.0
56777.0,STARLINK-5582,PAYLOAD,2024-08-07 12:52:20,14.98330189,0.0002902,70.0024,4.9106,263.8967,96.1862,8.1703e-05,8.82e-06,0.0,0 STARLINK-5582,1 56777U 23078L   24220.53634503  .00000882  00000-0  81703-4 0  9992,2 56777  70.0024   4.9106 0002902 263.8967  96.1862 14.98330189 65921,6950.192,96.107,574.074,570.04,0.0
56777.0,STARLINK-5582,PAYLOAD,2024-08-07 19:16:52,14.98335631,0.0002895,70.0024,4.2375,264.0897,95.9932,7.4182e-05,7.92e-06,0.0,0 STARLINK-5582,1 56777U 23078L   24220.80338146  .00000792  00000-0  74182-4 0  9999,2 56777  70.0024   4.2375 0002895 264.0897  95.9932 14.98335631 66224,6950.175,96.107,574.053,570.028,0.0
56777.0,STARLINK-5582,PAYLOAD,2024-08-08 14:30:28,14.98332972,0.0002972,70.0024,2.218,263.6399,96.4422,0.00016516,1.878e-05,0.0,0 STARLINK-5582,1 56777U 23078L   24221.60450104  .00001878  00000-0  16516-3 0  9999,2 56777  70.0024   2.2180 0002972 263.6399  96.4422 14.98332972 66083,6950.184,96.107,574.114,569.983,0.0
56777.0,STARLINK-5582,PAYLOAD,2024-08-08 19:18:52,14.98337605,0.0002959,70.0025,1.713,262.9264,97.1559,0.00021225,2.441e-05,0.0,0 STARLINK-5582,1 56777U 23078L   24221.80477701  .00002441  00000-0  21225-3 0  9993,2 56777  70.0025   1.7130 0002959 262.9264  97.1559 14.98337605 66370,6950.169,96.107,574.091,569.978,0.0
56777.0,STARLINK-5582,PAYLOAD,2024-08-09 12:56:21,14.98334412,0.0002974,70.0025,359.8607,271.8238,88.258,2.9393e-05,2.58e-06,0.0,0 STARLINK-5582,1 56777U 23078L   24222.53914335  .00000258  00000-0  29393-4 0  9992,2 56777  70.0025 359.8607 0002974 271.8238  88.2580 14.98334412 66483,6950.179,96.107,574.111,569.977,0.0
56777.0,STARLINK-5582,PAYLOAD,2024-08-09 19:20:53,14.98343051,0.0003055,70.0024,359.1873,271.4672,88.6137,0.00011894,1.327e-05,0.0,0 STARLINK-5582,1 56777U 23078L   24222.80617454  .00001327  00000-0  11894-3 0  9998,2 56777  70.0024 359.1873 0003055 271.4672  88.6137 14.98343051 66525,6950.153,96.106,574.141,569.894,0.0
56777.0,STARLINK-5582,PAYLOAD,2024-08-10 12:58:23,14.9832878,0.0002681,70.0039,357.3403,264.6732,95.4121,1.6954e-05,1.09e-06,0.0,0 STARLINK-5582,1 56777U 23078L   24223.54054550  .00000109  00000-0  16954-4 0  9992,2 56777  70.0039 357.3403 0002681 264.6732  95.4121 14.98328780 66638,6950.197,96.107,573.925,570.198,0.0
56777.0,STARLINK-5582,PAYLOAD,2024-08-10 14:34:31,14.9832969,0.0002568,70.0039,357.1721,262.004,98.0827,-1.4211e-06,-1.1e-06,0.0,0 STARLINK-5582,1 56777U 23078L   24223.60730529 -.00000110  00000-0 -14211-5 0  9995,2 56777  70.0039 357.1721 0002568 262.0040  98.0827 14.98329690 66382,6950.194,96.107,573.844,570.274,0.0
56777.0,STARLINK-5582,PAYLOAD,2024-08-10 19:22:54,14.98334062,0.0002584,70.0039,356.6637,268.3612,91.7251,9.1177e-05,9.95e-06,0.0,0 STARLINK-5582,1 56777U 23078L   24223.80758061  .00000995  00000-0  91177-4 0  9992,2 56777  70.0039 356.6637 0002584 268.3612  91.7251 14.98334062 66418,6950.18,96.107,573.841,570.249,0.0
56777.0,STARLINK-5582,PAYLOAD,2024-08-11 09:48:09,14.98310826,0.0002862,70.0022,355.1482,267.1978,92.8854,-0.00016816,-2.098e-05,0.0,0 STARLINK-5582,1 56777U 23078L   24224.40844318 -.00002098  00000-0 -16816-3 0  9994,2 56777  70.0022 355.1482 0002862 267.1978  92.8854 14.98310826 66764,6950.252,96.108,574.106,570.128,0.0
56777.0,STARLINK-5582,PAYLOAD,2024-08-11 14:36:33,14.983169,0.0002512,70.0038,354.6447,269.4017,90.6854,-4.5878e-05,-6.4e-06,0.0,0 STARLINK-5582,1 56777U 23078L   24224.60871931 -.00000640  00000-0 -45878-4 0  9999,2 56777  70.0038 354.6447 0002512 269.4017  90.6854 14.98316900 66795,6950.233,96.108,573.844,570.353,0.0
